[{"OBJECT_NAME":"SL-14 R/B","OBJECT_ID":"1986-006B","EPOCH":"2026-03-30T12:25:32.165760","MEAN_MOTION":14.86849604,"ECCENTRICITY":0.00759341,"INCLINATION":82.5254,"RA_OF_ASC_NODE":240.1302,"ARG_OF_PERICENTER":202.6549,"MEAN_ANOMALY":157.1312,"EPHEMERIS_TYPE":0,"CLASSIFICATION_TYPE":"U","NORAD_CAT_ID":16496,"ELEMENT_SET_NO":999,"REV_AT_EPOCH":15230,"BSTAR":0.00012601055,"MEAN_MOTION_DOT":1.211e-5,"MEAN_MOTION_DDOT":0},{"OBJECT_NAME":"COSMOS 1743","OBJECT_ID":"1986-034A","EPOCH":"2026-03-30T07:19:24.794112","MEAN_MOTION":15.60295929,"ECCENTRICITY":0.0004744,"INCLINATION":82.5302,"RA_OF_ASC_NODE":52.1657,"ARG_OF_PERICENTER":167.4292,"MEAN_ANOMALY":192.7084,"EPHEMERIS_TYPE":0,"CLASSIFICATION_TYPE":"U","NORAD_CAT_ID":16719,"ELEMENT_SET_NO":999,"REV_AT_EPOCH":18346,"BSTAR":0.00066577,"MEAN_MOTION_DOT":0.00054688,"MEAN_MOTION_DDOT":0},{"OBJECT_NAME":"SL-14 R/B","OBJECT_ID":"1986-046B","EPOCH":"2026-03-30T10:01:42.327264","MEAN_MOTION":14.85611015,"ECCENTRICITY":0.00236779,"INCLINATION":82.4806,"RA_OF_ASC_NODE":60.5914,"ARG_OF_PERICENTER":155.9679,"MEAN_ANOMALY":204.2648,"EPHEMERIS_TYPE":0,"CLASSIFICATION_TYPE":"U","NORAD_CAT_ID":16792,"ELEMENT_SET_NO":999,"REV_AT_EPOCH":12948,"BSTAR":7.1327766e-5,"MEAN_MOTION_DOT":6.45e-6,"MEAN_MOTION_DDOT":0},{"OBJECT_NAME":"SL-14 R/B","OBJECT_ID":"1986-055B","EPOCH":"2026-03-30T13:23:18.608064","MEAN_MOTION":14.85661488,"ECCENTRICITY":0.00173206,"INCLINATION":82.5169,"RA_OF_ASC_NODE":107.0542,"ARG_OF_PERICENTER":262.5594,"MEAN_ANOMALY":214.7936,"EPHEMERIS_TYPE":0,"CLASSIFICATION_TYPE":"U","NORAD_CAT_ID":16882,"ELEMENT_SET_NO":999,"REV_AT_EPOCH":12246,"BSTAR":6.4123971e-5,"MEAN_MOTION_DOT":5.81e-6,"MEAN_MOTION_DDOT":0},{"OBJECT_NAME":"AJISAI (EGS)","OBJECT_ID":"1986-061A","EPOCH":"2026-03-30T12:54:42.857856","MEAN_MOTION":12.44515627,"ECCENTRICITY":0.00113415,"INCLINATION":50.0115,"RA_OF_ASC_NODE":29.2382,"ARG_OF_PERICENTER":340.6825,"MEAN_ANOMALY":191.7861,"EPHEMERIS_TYPE":0,"CLASSIFICATION_TYPE":"U","NORAD_CAT_ID":16908,"ELEMENT_SET_NO":999,"REV_AT_EPOCH":47059,"BSTAR":-6.5887197e-5,"MEAN_MOTION_DOT":-1.07e-6,"MEAN_MOTION_DDOT":0},{"OBJECT_NAME":"SL-14 R/B","OBJECT_ID":"1987-024B","EPOCH":"2026-03-30T10:38:55.263552","MEAN_MOTION":14.86152446,"ECCENTRICITY":0.00179593,"INCLINATION":82.5255,"RA_OF_ASC_NODE":73.2513,"ARG_OF_PERICENTER":187.1067,"MEAN_ANOMALY":172.9898,"EPHEMERIS_TYPE":0,"CLASSIFICATION_TYPE":"U","NORAD_CAT_ID":17567,"ELEMENT_SET_NO":999,"REV_AT_EPOCH":9121,"BSTAR":6.9804956e-5,"MEAN_MOTION_DOT":6.38e-6,"MEAN_MOTION_DDOT":0},{"OBJECT_NAME":"COSMOS 1833","OBJECT_ID":"1987-027A","EPOCH":"2026-03-30T12:44:30.249888","MEAN_MOTION":14.13046685,"ECCENTRICITY":0.00231915,"INCLINATION":70.917,"RA_OF_ASC_NODE":282.2128,"ARG_OF_PERICENTER":183.736,"MEAN_ANOMALY":176.3592,"EPHEMERIS_TYPE":0,"CLASSIFICATION_TYPE":"U","NORAD_CAT_ID":17589,"ELEMENT_SET_NO":999,"REV_AT_EPOCH":1326,"BSTAR":-0.00012596102,"MEAN_MOTION_DOT":-2.84e-6,"MEAN_MOTION_DDOT":0},{"OBJECT_NAME":"SL-16 R/B","OBJECT_ID":"1987-027B","EPOCH":"2026-03-30T14:02:48.394176","MEAN_MOTION":14.17166038,"ECCENTRICITY":0.00028614,"INCLINATION":71.0017,"RA_OF_ASC_NODE":232.4588,"ARG_OF_PERICENTER":91.1173,"MEAN_ANOMALY":269.0279,"EPHEMERIS_TYPE":0,"CLASSIFICATION_TYPE":"U","NORAD_CAT_ID":17590,"ELEMENT_SET_NO":999,"REV_AT_EPOCH":1830,"BSTAR":7.1859474e-5,"MEAN_MOTION_DOT":9.7e-7,"MEAN_MOTION_DDOT":0},{"OBJECT_NAME":"SL-14 R/B","OBJECT_ID":"1987-038B","EPOCH":"2026-03-30T12:24:01.448352","MEAN_MOTION":14.85388645,"ECCENTRICITY":0.00207643,"INCLINATION":82.4977,"RA_OF_ASC_NODE":277.1819,"ARG_OF_PERICENTER":95.4817,"MEAN_ANOMALY":264.8769,"EPHEMERIS_TYPE":0,"CLASSIFICATION_TYPE":"U","NORAD_CAT_ID":17912,"ELEMENT_SET_NO":999,"REV_AT_EPOCH":8232,"BSTAR":7.0201917e-5,"MEAN_MOTION_DOT":6.31e-6,"MEAN_MOTION_DDOT":0},{"OBJECT_NAME":"COSMOS 1844","OBJECT_ID":"1987-041A","EPOCH":"2026-03-30T11:21:22.455648","MEAN_MOTION":14.14558043,"ECCENTRICITY":0.003116,"INCLINATION":70.9016,"RA_OF_ASC_NODE":350.3397,"ARG_OF_PERICENTER":347.4717,"MEAN_ANOMALY":12.5626,"EPHEMERIS_TYPE":0,"CLASSIFICATION_TYPE":"U","NORAD_CAT_ID":17973,"ELEMENT_SET_NO":999,"REV_AT_EPOCH":652,"BSTAR":0.00023828706,"MEAN_MOTION_DOT":4.11e-6,"MEAN_MOTION_DDOT":0},{"OBJECT_NAME":"SL-14 R/B","OBJECT_ID":"1987-055B","EPOCH":"2026-03-30T14:59:22.835904","MEAN_MOTION":14.85650353,"ECCENTRICITY":0.00194115,"INCLINATION":82.5004,"RA_OF_ASC_NODE":329.3035,"ARG_OF_PERICENTER":307.1843,"MEAN_ANOMALY":52.76,"EPHEMERIS_TYPE":0,"CLASSIFICATION_TYPE":"U","NORAD_CAT_ID":18153,"ELEMENT_SET_NO":999,"REV_AT_EPOCH":7304,"BSTAR":5.9183757e-5,"MEAN_MOTION_DOT":5.38e-6,"MEAN_MOTION_DDOT":0},{"OBJECT_NAME":"COSMOS 1867","OBJECT_ID":"1987-060A","EPOCH":"2026-03-30T12:56:47.220288","MEAN_MOTION":14.31506329,"ECCENTRICITY":0.0014852,"INCLINATION":65.0096,"RA_OF_ASC_NODE":248.3124,"ARG_OF_PERICENTER":279.8731,"MEAN_ANOMALY":80.0677,"EPHEMERIS_TYPE":0,"CLASSIFICATION_TYPE":"U","NORAD_CAT_ID":18187,"ELEMENT_SET_NO":999,"REV_AT_EPOCH":2292,"BSTAR":2.7081728e-5,"MEAN_MOTION_DOT":-2.8e-7,"MEAN_MOTION_DDOT":0},{"OBJECT_NAME":"SL-14 R/B","OBJECT_ID":"1988-001B","EPOCH":"2026-03-30T11:40:48.412416","MEAN_MOTION":14.85550813,"ECCENTRICITY":0.00184803,"INCLINATION":82.5159,"RA_OF_ASC_NODE":175.8063,"ARG_OF_PERICENTER":165.0962,"MEAN_ANOMALY":195.0803,"EPHEMERIS_TYPE":0,"CLASSIFICATION_TYPE":"U","NORAD_CAT_ID":18749,"ELEMENT_SET_NO":999,"REV_AT_EPOCH":4511,"BSTAR":6.6288353e-5,"MEAN_MOTION_DOT":5.99e-6,"MEAN_MOTION_DDOT":0},{"OBJECT_NAME":"COSMOS 1933","OBJECT_ID":"1988-020A","EPOCH":"2026-03-30T11:41:43.450080","MEAN_MOTION":15.18181753,"ECCENTRICITY":0.00052996,"INCLINATION":82.5122,"RA_OF_ASC_NODE":230.3299,"ARG_OF_PERICENTER":119.4704,"MEAN_ANOMALY":240.7059,"EPHEMERIS_TYPE":0,"CLASSIFICATION_TYPE":"U","NORAD_CAT_ID":18958,"ELEMENT_SET_NO":999,"REV_AT_EPOCH":5338,"BSTAR":0.00030227912,"MEAN_MOTION_DOT":6.208e-5,"MEAN_MOTION_DDOT":0},{"OBJECT_NAME":"SL-3 R/B","OBJECT_ID":"1988-032B","EPOCH":"2026-03-30T12:50:24.704160","MEAN_MOTION":15.20139876,"ECCENTRICITY":0.00265431,"INCLINATION":97.521,"RA_OF_ASC_NODE":72.7189,"ARG_OF_PERICENTER":157.4384,"MEAN_ANOMALY":202.8024,"EPHEMERIS_TYPE":0,"CLASSIFICATION_TYPE":"U","NORAD_CAT_ID":19046,"ELEMENT_SET_NO":999,"REV_AT_EPOCH":5527,"BSTAR":0.00029768219,"MEAN_MOTION_DOT":6.428e-5,"MEAN_MOTION_DDOT":0},{"OBJECT_NAME":"SL-16 R/B","OBJECT_ID":"1988-039B","EPOCH":"2026-03-30T06:33:53.188992","MEAN_MOTION":14.19619641,"ECCENTRICITY":0.0023692,"INCLINATION":71.017,"RA_OF_ASC_NODE":25.022,"ARG_OF_PERICENTER":304.8834,"MEAN_ANOMALY":55.0063,"EPHEMERIS_TYPE":0,"CLASSIFICATION_TYPE":"U","NORAD_CAT_ID":19120,"ELEMENT_SET_NO":999,"REV_AT_EPOCH":96130,"BSTAR":9.3443e-5,"MEAN_MOTION_DOT":1.5e-6,"MEAN_MOTION_DDOT":0},{"OBJECT_NAME":"COSMOS 1953","OBJECT_ID":"1988-050A","EPOCH":"2026-03-30T13:43:43.894848","MEAN_MOTION":15.28849262,"ECCENTRICITY":0.00122362,"INCLINATION":82.5079,"RA_OF_ASC_NODE":137.2403,"ARG_OF_PERICENTER":57.4137,"MEAN_ANOMALY":302.8283,"EPHEMERIS_TYPE":0,"CLASSIFICATION_TYPE":"U","NORAD_CAT_ID":19210,"ELEMENT_SET_NO":999,"REV_AT_EPOCH":4097,"BSTAR":0.00031134353,"MEAN_MOTION_DOT":8.778e-5,"MEAN_MOTION_DDOT":0}]
